BSAT-4A                 
1 42951U 17059B   17345.93333492 -.00000356  00000-0  00000-0 0  9994
2 42951   0.0301  49.6430 0001878 304.6743 172.2596  1.00271059   775
